IRIDIUM 155             
1 43573U 18061E   23051.67377890  .00000491  00000+0  16832-3 0  9992
2 43573  86.4004 203.3776 0002076  85.7582 274.3851 14.34218224239571
IRIDIUM 154             
1 43574U 18061F   23051.79428644  .00000504  00000+0  17293-3 0  9997
2 43574  86.4006 203.4020 0002196  99.5535 260.5909 14.34218950239635
IRIDIUM 163             
1 43575U 18061G   23051.77524920  .00000299  00000+0  99581-4 0  9992
2 43575  86.4011 203.3629 0001754 100.3878 259.7515 14.34207690239605
IRIDIUM 156             
1 43576U 18061H   23052.51734732  .00000514  00000+0  17638-3 0  9992
2 43576  86.4007 203.0589 0001722  91.6784 268.4609 14.34218228239695
IRIDIUM 164             
1 43577U 18061J   23051.52156091  .00000524  00000+0  17993-3 0  9994
2 43577  86.4004 203.4961 0002044 100.7095 259.4331 14.34217826239602
IRIDIUM 159             
1 43578U 18061K   23051.90844754  .00000444  00000+0  15163-3 0  9995
2 43578  86.4009 203.2973 0002149  98.7162 261.4277 14.34216366239628
IRIDIUM 180             
1 43922U 19002A   23051.76841840  .00000468  00000+0  16019-3 0  9998
2 43922  86.4004 140.3408 0002175 104.3277 255.8161 14.34213779215257
IRIDIUM 176             
1 43923U 19002B   23052.09087887  .00001515  00000+0  23645-3 0  9996
2 43923  86.6141 140.2483 0002000  92.6121 267.5325 14.72241964220918
IRIDIUM 168             
1 43924U 19002C   23052.25045682 -.00000068  00000+0 -31214-4 0  9998
2 43924  86.4008 140.1823 0002122 100.6890 259.4545 14.34212466215263
IRIDIUM 173             
1 43925U 19002D   23052.30753845  .00000398  00000+0  13507-3 0  9990
2 43925  86.4006 140.0973 0002175 101.7205 258.4235 14.34212961215262
IRIDIUM 169             
1 43926U 19002E   23051.40825568  .00000685  00000+0  21730-3 0  9999
2 43926  86.4293 172.0299 0004958  42.9002 317.2583 14.38612803215868
IRIDIUM 172             
1 43927U 19002F   23051.74305045  .00000485  00000+0  16609-3 0  9997
2 43927  86.4005 140.3372 0002218 102.9615 257.1828 14.34216941215182
IRIDIUM 175             
1 43928U 19002G   23051.74486030  .00001538  00000+0  24007-3 0  9993
2 43928  86.6145 140.2305 0002164  93.0618 267.0847 14.72247906220856
IRIDIUM 171             
1 43929U 19002H   23052.49147608  .00000359  00000+0  12123-3 0  9998
2 43929  86.4012 140.1963 0002278 101.0984 259.0468 14.34214633215289
IRIDIUM 170             
1 43930U 19002J   23052.43689520  .00001640  00000+0  25622-3 0  9990
2 43930  86.6137 140.1086 0002149  94.3166 265.8297 14.72250031220971
IRIDIUM 167             
1 43931U 19002K   23051.78745075  .00000483  00000+0  16549-3 0  9998
2 43931  86.4007 140.3304 0002164 102.1266 258.0172 14.34215773215182
